 2021 0131 1905 13.5 R   2.645 -59.570  0.0F USP 64 1.9 5.4RUSP                1
 GAP= 34        0.17       1.8     1.4                                         E
 STAT SP IPHASW D HRMN SECON CODA AMPLIT PERI AZIMU VELO SNR AR TRES W  DIS CAZ7
 ITTB HZ EP   0   190709.97                                     -0.40   884 151 
 CLDB HZ EP   0   190829.19                                     -3.30  1551 164 
 PRPB HZ EP   0   190817.06                                     -3.89  1457 131 
 PDRB HZ EP   0   190835.69                                     -3.60  1606 168 
 MACA HZ EP   0   190643.35                                     1.520   653 190 
 MAL2 HZ EP   0   190658.33                                     -0.43   790 130 
 NPGB HR EP   0   190743.48                                     -1.93  1168 156 
 OTAV BZ EP   0   190939.90                                     2.742  2115 263 
 CMC01HZ EP   0   191055.01                                     0.269  2971 132 
 TEFE HZ EP   0   190710.12                                     -0.05   883 219 
 PMNB HR EP   0   191037.04                                     0.609  2747 148 
 DIAM HZ EP   0   191048.97                                     0.328  2896 143 
 AQDB HR EP   0   191024.36                                     1.401  2590 170 
 CZSB HZ EP   0   190905.33                                     -3.33  1854 231 
 SNDB HZ EP   0   190903.83                                     -5.07  1856 150 
 SMTB HZ EP   0   190901.61                                     -5.28  1838 133 
 BOAV HZ EP   0   190532.73                                     0.317   109 255 
 SALTABZ EP   0   191101.13                                     -0.61  3059 193 
 GUA01HR EP   0   191059.86                                     -0.27  3038 135 
 BOAV H2 ES   0   190546.008                                    0.627   109 255 
 MPG  HZ EP   0   190659.680                                    0.000     0   0                                                                           
